STARLINK-36103          
1 66985U 25288AC  26002.16014269  .00154239  00000+0  25814-2 0  9993
2 66985  43.0007  44.2790 0001106 342.7552  17.3270 15.50600988  5054
STARLINK-36135          
1 66986U 25288AD  26002.15979721  .00146741  00000+0  24584-2 0  9998
2 66986  43.0003  44.2762 0000979 288.5436  71.5318 15.50602756  5055
STARLINK-36147          
1 66987U 25288AE  26002.15944818  .00107069  00000+0  18064-2 0  9994
2 66987  43.0008  44.2741 0000789 236.5389 123.5396 15.50572795  5050
YAOGAN-47               
1 66988U 25289A   25362.17815560  .00004855  00000+0  20730-3 0  9990
2 66988  97.5253  67.3364 0000855 117.9958 242.1365 15.23366104  2890
CZ-4B R/B               
1 66989U 25289B   26002.17279016  .00171103  11031-4  73353-3 0  9994
2 66989  97.5217  74.0576 0133051 285.3746  73.2850 15.72757740  3775
TJS-22                  
1 66990U 25290A   26001.32876081  .00000008  00000+0  00000+0 0  9998
2 66990   1.9395 285.0568 0003313 344.4694  16.2782  1.00272648   351
CZ-3B R/B               
1 66991U 25290B   25349.72468800  .00057911 -20514-6  75879-3 0  9998
2 66991  28.4636 300.4666 7240884 182.7002 168.6250  2.38388611   165
2025-292A               
1 66993U 25292A   26002.15761779  .00009219  00000+0  65717-3 0  9995
2 66993  97.6505  79.5084 0015129 200.1928 159.8701 15.04704798  3469
2025-292B               
1 66994U 25292B   26002.15688002  .00010618  00000+0  75485-3 0  9991
2 66994  97.6516  79.5119 0014931 200.5482 159.5146 15.04768547  3462
2025-292C               
1 66995U 25292C   26002.15720839  .00011388  00000+0  81106-3 0  9999
2 66995  97.6507  79.5089 0015111 198.6479 161.4195 15.04679028  3464
2025-292D               
1 66996U 25292D   26002.15635322  .00008150  00000+0  58107-3 0  9990
2 66996  97.6502  79.5086 0014295 202.5747 157.4852 15.04748873  3462
2025-292E               
1 66997U 25292E   26002.15481758  .00009041  00000+0  64153-3 0  9991
2 66997  97.6525  79.5167 0014636 203.9173 156.1375 15.04889695  3458
