CCSDS_OMM_VERS = 2.0
CREATION_DATE  = 
ORIGINATOR     = 

OBJECT_NAME    = STARLINK-36103
OBJECT_ID      = 2025-288AC
CENTER_NAME    = EARTH
REF_FRAME      = TEME
TIME_SYSTEM    = UTC
MEAN_ELEMENT_THEORY = SGP/SGP4

EPOCH          = 2026-01-02T03:50:36.328416
MEAN_MOTION    = 15.50600988
ECCENTRICITY   = .0001106
INCLINATION    = 43.0007
RA_OF_ASC_NODE = 44.2790
ARG_OF_PERICENTER = 342.7552
MEAN_ANOMALY   = 17.3270

EPHEMERIS_TYPE = 0
CLASSIFICATION_TYPE = U
NORAD_CAT_ID   = 66985
ELEMENT_SET_NO = 999
REV_AT_EPOCH   = 505
BSTAR          = .25814E-2
MEAN_MOTION_DOT = .154239E-2
MEAN_MOTION_DDOT = 0

CCSDS_OMM_VERS = 2.0
CREATION_DATE  = 
ORIGINATOR     = 

OBJECT_NAME    = STARLINK-36135
OBJECT_ID      = 2025-288AD
CENTER_NAME    = EARTH
REF_FRAME      = TEME
TIME_SYSTEM    = UTC
MEAN_ELEMENT_THEORY = SGP/SGP4

EPOCH          = 2026-01-02T03:50:06.478944
MEAN_MOTION    = 15.50602756
ECCENTRICITY   = .0000979
INCLINATION    = 43.0003
RA_OF_ASC_NODE = 44.2762
ARG_OF_PERICENTER = 288.5436
MEAN_ANOMALY   = 71.5318

EPHEMERIS_TYPE = 0
CLASSIFICATION_TYPE = U
NORAD_CAT_ID   = 66986
ELEMENT_SET_NO = 999
REV_AT_EPOCH   = 505
BSTAR          = .24584E-2
MEAN_MOTION_DOT = .146741E-2
MEAN_MOTION_DDOT = 0

CCSDS_OMM_VERS = 2.0
CREATION_DATE  = 
ORIGINATOR     = 

OBJECT_NAME    = STARLINK-36147
OBJECT_ID      = 2025-288AE
CENTER_NAME    = EARTH
REF_FRAME      = TEME
TIME_SYSTEM    = UTC
MEAN_ELEMENT_THEORY = SGP/SGP4

EPOCH          = 2026-01-02T03:49:36.322752
MEAN_MOTION    = 15.50572795
ECCENTRICITY   = .0000789
INCLINATION    = 43.0008
RA_OF_ASC_NODE = 44.2741
ARG_OF_PERICENTER = 236.5389
MEAN_ANOMALY   = 123.5396

EPHEMERIS_TYPE = 0
CLASSIFICATION_TYPE = U
NORAD_CAT_ID   = 66987
ELEMENT_SET_NO = 999
REV_AT_EPOCH   = 505
BSTAR          = .18064E-2
MEAN_MOTION_DOT = .107069E-2
MEAN_MOTION_DDOT = 0

CCSDS_OMM_VERS = 2.0
CREATION_DATE  = 
ORIGINATOR     = 

OBJECT_NAME    = YAOGAN-47
OBJECT_ID      = 2025-289A
CENTER_NAME    = EARTH
REF_FRAME      = TEME
TIME_SYSTEM    = UTC
MEAN_ELEMENT_THEORY = SGP/SGP4

EPOCH          = 2025-12-28T04:16:32.643840
MEAN_MOTION    = 15.23366104
ECCENTRICITY   = .00008556
INCLINATION    = 97.5253
RA_OF_ASC_NODE = 67.3364
ARG_OF_PERICENTER = 117.9958
MEAN_ANOMALY   = 242.1365

EPHEMERIS_TYPE = 0
CLASSIFICATION_TYPE = U
NORAD_CAT_ID   = 66988
ELEMENT_SET_NO = 999
REV_AT_EPOCH   = 289
BSTAR          = .2072964E-3
MEAN_MOTION_DOT = .4855E-4
MEAN_MOTION_DDOT = 0

CCSDS_OMM_VERS = 2.0
CREATION_DATE  = 
ORIGINATOR     = 

OBJECT_NAME    = CZ-4B R/B
OBJECT_ID      = 2025-289B
CENTER_NAME    = EARTH
REF_FRAME      = TEME
TIME_SYSTEM    = UTC
MEAN_ELEMENT_THEORY = SGP/SGP4

EPOCH          = 2026-01-02T04:08:49.069824
MEAN_MOTION    = 15.72757740
ECCENTRICITY   = .0133051
INCLINATION    = 97.5217
RA_OF_ASC_NODE = 74.0576
ARG_OF_PERICENTER = 285.3746
MEAN_ANOMALY   = 73.2850

EPHEMERIS_TYPE = 0
CLASSIFICATION_TYPE = U
NORAD_CAT_ID   = 66989
ELEMENT_SET_NO = 999
REV_AT_EPOCH   = 377
BSTAR          = .73353E-3
MEAN_MOTION_DOT = .171103E-2
MEAN_MOTION_DDOT = .11031E-4

CCSDS_OMM_VERS = 2.0
CREATION_DATE  = 
ORIGINATOR     = 

OBJECT_NAME    = TJS-22
OBJECT_ID      = 2025-290A
CENTER_NAME    = EARTH
REF_FRAME      = TEME
TIME_SYSTEM    = UTC
MEAN_ELEMENT_THEORY = SGP/SGP4

EPOCH          = 2026-01-01T07:53:24.933984
MEAN_MOTION    = 1.00272648
ECCENTRICITY   = .0003313
INCLINATION    = 1.9395
RA_OF_ASC_NODE = 285.0568
ARG_OF_PERICENTER = 344.4694
MEAN_ANOMALY   = 16.2782

EPHEMERIS_TYPE = 0
CLASSIFICATION_TYPE = U
NORAD_CAT_ID   = 66990
ELEMENT_SET_NO = 999
REV_AT_EPOCH   = 35
BSTAR          = 0
MEAN_MOTION_DOT = .8E-7
MEAN_MOTION_DDOT = 0

CCSDS_OMM_VERS = 2.0
CREATION_DATE  = 
ORIGINATOR     = 

OBJECT_NAME    = CZ-3B R/B
OBJECT_ID      = 2025-290B
CENTER_NAME    = EARTH
REF_FRAME      = TEME
TIME_SYSTEM    = UTC
MEAN_ELEMENT_THEORY = SGP/SGP4

EPOCH          = 2025-12-15T17:23:33.043200
MEAN_MOTION    = 2.38388611
ECCENTRICITY   = .7240884
INCLINATION    = 28.4636
RA_OF_ASC_NODE = 300.4666
ARG_OF_PERICENTER = 182.7002
MEAN_ANOMALY   = 168.6250

EPHEMERIS_TYPE = 0
CLASSIFICATION_TYPE = U
NORAD_CAT_ID   = 66991
ELEMENT_SET_NO = 999
REV_AT_EPOCH   = 16
BSTAR          = .75879E-3
MEAN_MOTION_DOT = .57911E-3
MEAN_MOTION_DDOT = -.20514E-6

CCSDS_OMM_VERS = 2.0
CREATION_DATE  = 
ORIGINATOR     = 

OBJECT_NAME    = 2025-292A
OBJECT_ID      = 2025-292A
CENTER_NAME    = EARTH
REF_FRAME      = TEME
TIME_SYSTEM    = UTC
MEAN_ELEMENT_THEORY = SGP/SGP4

EPOCH          = 2026-01-02T03:46:58.177056
MEAN_MOTION    = 15.04704798
ECCENTRICITY   = .0015129
INCLINATION    = 97.6505
RA_OF_ASC_NODE = 79.5084
ARG_OF_PERICENTER = 200.1928
MEAN_ANOMALY   = 159.8701

EPHEMERIS_TYPE = 0
CLASSIFICATION_TYPE = U
NORAD_CAT_ID   = 66993
ELEMENT_SET_NO = 999
REV_AT_EPOCH   = 346
BSTAR          = .65717E-3
MEAN_MOTION_DOT = .9219E-4
MEAN_MOTION_DDOT = 0

CCSDS_OMM_VERS = 2.0
CREATION_DATE  = 
ORIGINATOR     = 

OBJECT_NAME    = 2025-292B
OBJECT_ID      = 2025-292B
CENTER_NAME    = EARTH
REF_FRAME      = TEME
TIME_SYSTEM    = UTC
MEAN_ELEMENT_THEORY = SGP/SGP4

EPOCH          = 2026-01-02T03:45:54.433728
MEAN_MOTION    = 15.04768547
ECCENTRICITY   = .0014931
INCLINATION    = 97.6516
RA_OF_ASC_NODE = 79.5119
ARG_OF_PERICENTER = 200.5482
MEAN_ANOMALY   = 159.5146

EPHEMERIS_TYPE = 0
CLASSIFICATION_TYPE = U
NORAD_CAT_ID   = 66994
ELEMENT_SET_NO = 999
REV_AT_EPOCH   = 346
BSTAR          = .75485E-3
MEAN_MOTION_DOT = .10618E-3
MEAN_MOTION_DDOT = 0

CCSDS_OMM_VERS = 2.0
CREATION_DATE  = 
ORIGINATOR     = 

OBJECT_NAME    = 2025-292C
OBJECT_ID      = 2025-292C
CENTER_NAME    = EARTH
REF_FRAME      = TEME
TIME_SYSTEM    = UTC
MEAN_ELEMENT_THEORY = SGP/SGP4

EPOCH          = 2026-01-02T03:46:22.804896
MEAN_MOTION    = 15.04679028
ECCENTRICITY   = .0015111
INCLINATION    = 97.6507
RA_OF_ASC_NODE = 79.5089
ARG_OF_PERICENTER = 198.6479
MEAN_ANOMALY   = 161.4195

EPHEMERIS_TYPE = 0
CLASSIFICATION_TYPE = U
NORAD_CAT_ID   = 66995
ELEMENT_SET_NO = 999
REV_AT_EPOCH   = 346
BSTAR          = .81106E-3
MEAN_MOTION_DOT = .11388E-3
MEAN_MOTION_DDOT = 0

CCSDS_OMM_VERS = 2.0
CREATION_DATE  = 
ORIGINATOR     = 

OBJECT_NAME    = 2025-292D
OBJECT_ID      = 2025-292D
CENTER_NAME    = EARTH
REF_FRAME      = TEME
TIME_SYSTEM    = UTC
MEAN_ELEMENT_THEORY = SGP/SGP4

EPOCH          = 2026-01-02T03:45:08.918208
MEAN_MOTION    = 15.04748873
ECCENTRICITY   = .0014295
INCLINATION    = 97.6502
RA_OF_ASC_NODE = 79.5086
ARG_OF_PERICENTER = 202.5747
MEAN_ANOMALY   = 157.4852

EPHEMERIS_TYPE = 0
CLASSIFICATION_TYPE = U
NORAD_CAT_ID   = 66996
ELEMENT_SET_NO = 999
REV_AT_EPOCH   = 346
BSTAR          = .58107E-3
MEAN_MOTION_DOT = .815E-4
MEAN_MOTION_DDOT = 0

CCSDS_OMM_VERS = 2.0
CREATION_DATE  = 
ORIGINATOR     = 

OBJECT_NAME    = 2025-292E
OBJECT_ID      = 2025-292E
CENTER_NAME    = EARTH
REF_FRAME      = TEME
TIME_SYSTEM    = UTC
MEAN_ELEMENT_THEORY = SGP/SGP4

EPOCH          = 2026-01-02T03:42:56.238912
MEAN_MOTION    = 15.04889695
ECCENTRICITY   = .0014636
INCLINATION    = 97.6525
RA_OF_ASC_NODE = 79.5167
ARG_OF_PERICENTER = 203.9173
MEAN_ANOMALY   = 156.1375

EPHEMERIS_TYPE = 0
CLASSIFICATION_TYPE = U
NORAD_CAT_ID   = 66997
ELEMENT_SET_NO = 999
REV_AT_EPOCH   = 345
BSTAR          = .64153E-3
MEAN_MOTION_DOT = .9041E-4
MEAN_MOTION_DDOT = 0

